AMC-3                   
1 24936U 97050A   26087.36433704 -.00000276  00000+0  00000+0 0  9992
2 24936   7.9494  64.9940 0003348 305.1825 234.7528  1.00272008 51628
NSS-11                  
1 26554U 00059A   26087.23864338  .00000007  00000+0  00000+0 0  9991
2 26554   1.9181  82.3299 0003084 283.2199  82.0052  1.00271838 40489
AMC-6                   
1 26580U 00067A   26087.51642039  .00000069  00000+0  00000+0 0  9990
2 26580   0.0496  43.0472 0003442 330.2799 223.4466  1.00270533 93086
AMC-11                  
1 28252U 04017A   26087.52269326 -.00000069  00000+0  00000+0 0  9993
2 28252   0.1032  79.7662 0003123 287.3640 255.8613  1.00271737 80054
AMC-15                  
1 28446U 04041A   26087.52390661 -.00000108  00000+0  00000+0 0  9996
2 28446   0.0449  20.5437 0002285 328.6494 280.2983  1.00271624 78490
NSS-10                  
1 28526U 05003A   26087.40291486 -.00000267  00000+0  00000+0 0  9992
2 28526   6.2486  71.4175 0003244 290.1420 291.8536  1.00272040 52341
ASTRA 1KR               
1 29055U 06012A   26087.54852005  .00000100  00000+0  00000+0 0  9991
2 29055   0.2665  82.0157 0003453 279.8378  40.5510  1.00273843 44881
ASTRA 1L                
1 31306U 07016A   26087.37336590 -.00000203  00000+0  00000+0 0  9990
2 31306   1.1134  82.1404 0003965 300.0222 273.5162  1.00271504 44178
ASTRA 4A                
1 32299U 07057A   26087.33176650  .00000013  00000+0  00000+0 0  9990
2 32299   0.0411  36.6933 0002528 334.2708 299.0066  1.00272455 50831
ASTRA 1M                
1 33436U 08057A   26087.83380556  .00000102  00000+0  00000+0 0  9991
2 33436   0.0928  73.6835 0002331   3.8369  68.2670  1.00278770 44931
NSS-9                   
1 33749U 09008A   26087.54697647  .00000053  00000+0  00000+0 0  9990
2 33749   1.0537  83.3695 0002154 270.9340 211.6307  1.00273241 62711
SES-7 (PROTOSTAR 2)     
1 34941U 09027A   26087.85142471 -.00000364  00000+0  00000+0 0  9996
2 34941   0.0742  77.7790 0001787 248.2102 275.0190  1.00272091 61828
NSS-12                  
1 36032U 09058A   26087.55606008  .00000052  00000+0  00000+0 0  9994
2 36032   0.0595  53.0059 0005060 295.4957  94.6375  1.00271039 60103
SES-1                   
1 36516U 10016A   26087.33517012  .00000000  00000+0  00000+0 0  9992
2 36516   0.0127 190.2009 0002642 174.6288 200.5955  1.00269608 58229
ASTRA 3B                
1 36581U 10021A   26087.54938673  .00000118  00000+0  00000+0 0  9993
2 36581   1.2604  84.5415 0003495 297.9746  24.7319  1.00269187 58058
SES-3                   
1 37748U 11035A   26087.51086254 -.00000121  00000+0  00000+0 0  9996
2 37748   1.1185  83.9352 0003555 283.4425 259.4503  1.00272424 53786
ASTRA 1N                
1 37775U 11041A   26087.54852005  .00000100  00000+0  00000+0 0  9997
2 37775   0.1106  52.7835 0004999 337.8695  11.9526  1.00272595 43711
