[{"OBJECT_NAME":"AMC-3","OBJECT_ID":"1997-050A","EPOCH":"2026-03-28T08:44:38.720256","MEAN_MOTION":1.00272008,"ECCENTRICITY":0.00033484,"INCLINATION":7.9494,"RA_OF_ASC_NODE":64.994,"ARG_OF_PERICENTER":305.1825,"MEAN_ANOMALY":234.7528,"EPHEMERIS_TYPE":0,"CLASSIFICATION_TYPE":"U","NORAD_CAT_ID":24936,"ELEMENT_SET_NO":999,"REV_AT_EPOCH":5162,"BSTAR":0,"MEAN_MOTION_DOT":-2.76e-6,"MEAN_MOTION_DDOT":0},{"OBJECT_NAME":"NSS-11","OBJECT_ID":"2000-059A","EPOCH":"2026-03-28T05:43:38.788032","MEAN_MOTION":1.00271838,"ECCENTRICITY":0.0003084,"INCLINATION":1.9181,"RA_OF_ASC_NODE":82.3299,"ARG_OF_PERICENTER":283.2199,"MEAN_ANOMALY":82.0052,"EPHEMERIS_TYPE":0,"CLASSIFICATION_TYPE":"U","NORAD_CAT_ID":26554,"ELEMENT_SET_NO":999,"REV_AT_EPOCH":4048,"BSTAR":0,"MEAN_MOTION_DOT":7.0e-8,"MEAN_MOTION_DDOT":0},{"OBJECT_NAME":"AMC-6","OBJECT_ID":"2000-067A","EPOCH":"2026-03-28T12:23:38.721696","MEAN_MOTION":1.00270533,"ECCENTRICITY":0.00034424,"INCLINATION":0.0496,"RA_OF_ASC_NODE":43.0472,"ARG_OF_PERICENTER":330.2799,"MEAN_ANOMALY":223.4466,"EPHEMERIS_TYPE":0,"CLASSIFICATION_TYPE":"U","NORAD_CAT_ID":26580,"ELEMENT_SET_NO":999,"REV_AT_EPOCH":9308,"BSTAR":0,"MEAN_MOTION_DOT":6.9e-7,"MEAN_MOTION_DDOT":0},{"OBJECT_NAME":"AMC-11","OBJECT_ID":"2004-017A","EPOCH":"2026-03-28T12:32:40.697664","MEAN_MOTION":1.00271737,"ECCENTRICITY":0.00031235,"INCLINATION":0.1032,"RA_OF_ASC_NODE":79.7662,"ARG_OF_PERICENTER":287.364,"MEAN_ANOMALY":255.8613,"EPHEMERIS_TYPE":0,"CLASSIFICATION_TYPE":"U","NORAD_CAT_ID":28252,"ELEMENT_SET_NO":999,"REV_AT_EPOCH":8005,"BSTAR":0,"MEAN_MOTION_DOT":-6.9e-7,"MEAN_MOTION_DDOT":0},{"OBJECT_NAME":"AMC-15","OBJECT_ID":"2004-041A","EPOCH":"2026-03-28T12:34:25.531104","MEAN_MOTION":1.00271624,"ECCENTRICITY":0.00022851,"INCLINATION":0.0449,"RA_OF_ASC_NODE":20.5437,"ARG_OF_PERICENTER":328.6494,"MEAN_ANOMALY":280.2983,"EPHEMERIS_TYPE":0,"CLASSIFICATION_TYPE":"U","NORAD_CAT_ID":28446,"ELEMENT_SET_NO":999,"REV_AT_EPOCH":7849,"BSTAR":0,"MEAN_MOTION_DOT":-1.08e-6,"MEAN_MOTION_DDOT":0},{"OBJECT_NAME":"NSS-10","OBJECT_ID":"2005-003A","EPOCH":"2026-03-28T09:40:11.843904","MEAN_MOTION":1.0027204,"ECCENTRICITY":0.00032443,"INCLINATION":6.2486,"RA_OF_ASC_NODE":71.4175,"ARG_OF_PERICENTER":290.142,"MEAN_ANOMALY":291.8536,"EPHEMERIS_TYPE":0,"CLASSIFICATION_TYPE":"U","NORAD_CAT_ID":28526,"ELEMENT_SET_NO":999,"REV_AT_EPOCH":5234,"BSTAR":0,"MEAN_MOTION_DOT":-2.67e-6,"MEAN_MOTION_DDOT":0},{"OBJECT_NAME":"ASTRA 1KR","OBJECT_ID":"2006-012A","EPOCH":"2026-03-28T13:09:52.132320","MEAN_MOTION":1.00273843,"ECCENTRICITY":0.00034531,"INCLINATION":0.2665,"RA_OF_ASC_NODE":82.0157,"ARG_OF_PERICENTER":279.8378,"MEAN_ANOMALY":40.551,"EPHEMERIS_TYPE":0,"CLASSIFICATION_TYPE":"U","NORAD_CAT_ID":29055,"ELEMENT_SET_NO":999,"REV_AT_EPOCH":4488,"BSTAR":0,"MEAN_MOTION_DOT":1.0e-6,"MEAN_MOTION_DDOT":0},{"OBJECT_NAME":"ASTRA 1L","OBJECT_ID":"2007-016A","EPOCH":"2026-03-28T08:57:38.813760","MEAN_MOTION":1.00271504,"ECCENTRICITY":0.00039651,"INCLINATION":1.1134,"RA_OF_ASC_NODE":82.1404,"ARG_OF_PERICENTER":300.0222,"MEAN_ANOMALY":273.5162,"EPHEMERIS_TYPE":0,"CLASSIFICATION_TYPE":"U","NORAD_CAT_ID":31306,"ELEMENT_SET_NO":999,"REV_AT_EPOCH":4417,"BSTAR":0,"MEAN_MOTION_DOT":-2.03e-6,"MEAN_MOTION_DDOT":0},{"OBJECT_NAME":"ASTRA 4A","OBJECT_ID":"2007-057A","EPOCH":"2026-03-28T07:57:44.625600","MEAN_MOTION":1.00272455,"ECCENTRICITY":0.0002528,"INCLINATION":0.0411,"RA_OF_ASC_NODE":36.6933,"ARG_OF_PERICENTER":334.2708,"MEAN_ANOMALY":299.0066,"EPHEMERIS_TYPE":0,"CLASSIFICATION_TYPE":"U","NORAD_CAT_ID":32299,"ELEMENT_SET_NO":999,"REV_AT_EPOCH":5083,"BSTAR":0,"MEAN_MOTION_DOT":1.3e-7,"MEAN_MOTION_DDOT":0},{"OBJECT_NAME":"ASTRA 1M","OBJECT_ID":"2008-057A","EPOCH":"2026-03-28T20:00:40.800384","MEAN_MOTION":1.0027877,"ECCENTRICITY":0.0002331,"INCLINATION":0.0928,"RA_OF_ASC_NODE":73.6835,"ARG_OF_PERICENTER":3.8369,"MEAN_ANOMALY":68.267,"EPHEMERIS_TYPE":0,"CLASSIFICATION_TYPE":"U","NORAD_CAT_ID":33436,"ELEMENT_SET_NO":999,"REV_AT_EPOCH":4493,"BSTAR":0,"MEAN_MOTION_DOT":1.02e-6,"MEAN_MOTION_DDOT":0},{"OBJECT_NAME":"NSS-9","OBJECT_ID":"2009-008A","EPOCH":"2026-03-28T13:07:38.767008","MEAN_MOTION":1.00273241,"ECCENTRICITY":0.00021545,"INCLINATION":1.0537,"RA_OF_ASC_NODE":83.3695,"ARG_OF_PERICENTER":270.934,"MEAN_ANOMALY":211.6307,"EPHEMERIS_TYPE":0,"CLASSIFICATION_TYPE":"U","NORAD_CAT_ID":33749,"ELEMENT_SET_NO":999,"REV_AT_EPOCH":6271,"BSTAR":0,"MEAN_MOTION_DOT":5.3e-7,"MEAN_MOTION_DDOT":0},{"OBJECT_NAME":"SES-7 (PROTOSTAR 2)","OBJECT_ID":"2009-027A","EPOCH":"2026-03-28T20:26:03.094944","MEAN_MOTION":1.00272091,"ECCENTRICITY":0.0001787,"INCLINATION":0.0742,"RA_OF_ASC_NODE":77.779,"ARG_OF_PERICENTER":248.2102,"MEAN_ANOMALY":275.019,"EPHEMERIS_TYPE":0,"CLASSIFICATION_TYPE":"U","NORAD_CAT_ID":34941,"ELEMENT_SET_NO":999,"REV_AT_EPOCH":6182,"BSTAR":0,"MEAN_MOTION_DOT":-3.64e-6,"MEAN_MOTION_DDOT":0},{"OBJECT_NAME":"NSS-12","OBJECT_ID":"2009-058A","EPOCH":"2026-03-28T13:20:43.590912","MEAN_MOTION":1.00271039,"ECCENTRICITY":0.00050604,"INCLINATION":0.0595,"RA_OF_ASC_NODE":53.0059,"ARG_OF_PERICENTER":295.4957,"MEAN_ANOMALY":94.6375,"EPHEMERIS_TYPE":0,"CLASSIFICATION_TYPE":"U","NORAD_CAT_ID":36032,"ELEMENT_SET_NO":999,"REV_AT_EPOCH":6010,"BSTAR":0,"MEAN_MOTION_DOT":5.2e-7,"MEAN_MOTION_DDOT":0},{"OBJECT_NAME":"SES-1","OBJECT_ID":"2010-016A","EPOCH":"2026-03-28T08:02:38.698368","MEAN_MOTION":1.00269608,"ECCENTRICITY":0.00026423,"INCLINATION":0.0127,"RA_OF_ASC_NODE":190.2009,"ARG_OF_PERICENTER":174.6288,"MEAN_ANOMALY":200.5955,"EPHEMERIS_TYPE":0,"CLASSIFICATION_TYPE":"U","NORAD_CAT_ID":36516,"ELEMENT_SET_NO":999,"REV_AT_EPOCH":5822,"BSTAR":0,"MEAN_MOTION_DOT":0,"MEAN_MOTION_DDOT":0},{"OBJECT_NAME":"ASTRA 3B","OBJECT_ID":"2010-021A","EPOCH":"2026-03-28T13:11:07.013472","MEAN_MOTION":1.00269187,"ECCENTRICITY":0.00034951,"INCLINATION":1.2604,"RA_OF_ASC_NODE":84.5415,"ARG_OF_PERICENTER":297.9746,"MEAN_ANOMALY":24.7319,"EPHEMERIS_TYPE":0,"CLASSIFICATION_TYPE":"U","NORAD_CAT_ID":36581,"ELEMENT_SET_NO":999,"REV_AT_EPOCH":5805,"BSTAR":0,"MEAN_MOTION_DOT":1.18e-6,"MEAN_MOTION_DDOT":0},{"OBJECT_NAME":"SES-3","OBJECT_ID":"2011-035A","EPOCH":"2026-03-28T12:15:38.523456","MEAN_MOTION":1.00272424,"ECCENTRICITY":0.0003555,"INCLINATION":1.1185,"RA_OF_ASC_NODE":83.9352,"ARG_OF_PERICENTER":283.4425,"MEAN_ANOMALY":259.4503,"EPHEMERIS_TYPE":0,"CLASSIFICATION_TYPE":"U","NORAD_CAT_ID":37748,"ELEMENT_SET_NO":999,"REV_AT_EPOCH":5378,"BSTAR":0,"MEAN_MOTION_DOT":-1.21e-6,"MEAN_MOTION_DDOT":0},{"OBJECT_NAME":"ASTRA 1N","OBJECT_ID":"2011-041A","EPOCH":"2026-03-28T13:09:52.132320","MEAN_MOTION":1.00272595,"ECCENTRICITY":0.00049991,"INCLINATION":0.1106,"RA_OF_ASC_NODE":52.7835,"ARG_OF_PERICENTER":337.8695,"MEAN_ANOMALY":11.9526,"EPHEMERIS_TYPE":0,"CLASSIFICATION_TYPE":"U","NORAD_CAT_ID":37775,"ELEMENT_SET_NO":999,"REV_AT_EPOCH":4371,"BSTAR":0,"MEAN_MOTION_DOT":1.0e-6,"MEAN_MOTION_DDOT":0}]
